[{"OBJECT_NAME":"STARLINK-32791","OBJECT_ID":"2025-004V","EPOCH":"2026-03-09T10:55:35.228640","MEAN_MOTION":15.27560353,"ECCENTRICITY":0.00018909,"INCLINATION":43.0014,"RA_OF_ASC_NODE":221.1126,"ARG_OF_PERICENTER":265.4901,"MEAN_ANOMALY":94.5734,"EPHEMERIS_TYPE":0,"CLASSIFICATION_TYPE":"U","NORAD_CAT_ID":62530,"ELEMENT_SET_NO":999,"REV_AT_EPOCH":6642,"BSTAR":0.00096688758,"MEAN_MOTION_DOT":0.00026424,"MEAN_MOTION_DDOT":0},{"OBJECT_NAME":"JINJUSAT-1B","OBJECT_ID":"2025-052A","EPOCH":"2026-03-09T15:55:38.242848","MEAN_MOTION":15.30194857,"ECCENTRICITY":0.00055504,"INCLINATION":97.4113,"RA_OF_ASC_NODE":325.4613,"ARG_OF_PERICENTER":82.193,"MEAN_ANOMALY":277.9941,"EPHEMERIS_TYPE":0,"CLASSIFICATION_TYPE":"U","NORAD_CAT_ID":63210,"ELEMENT_SET_NO":999,"REV_AT_EPOCH":5486,"BSTAR":0.00068430401,"MEAN_MOTION_DOT":0.00019955,"MEAN_MOTION_DDOT":0}]
